ORBCOMM FM37            
1 33064U 08031E   24136.22613463  .00004108  00000+0  61297-3 0  9991
2 33064  48.4403  70.8492 0005509 112.3302  40.9341 14.76458392855178
ORBCOMM FM40            
1 33065U 08031F   24136.05678753  .00006089  00000+0  86704-3 0  9996
2 33065  48.4426  60.9802 0006893 120.9834 252.6796 14.77781611855193
VESSELSAT 1             
1 37840U 11058C   24136.87542504  .00000586  00000+0  17562-3 0  9990
2 37840  19.9637 337.6563 0013736 136.6037 223.5450 14.11154061650341
ORBCOMM FM109           
1 40086U 14040A   24136.23997346  .00002322  00000+0  55288-3 0  9995
2 40086  47.0023  93.6093 0002651 289.6661  70.3938 14.56618173523011
ORBCOMM FM107           
1 40087U 14040B   24136.27419072  .00002398  00000+0  56968-3 0  9994
2 40087  47.0042  94.4146 0002036 266.9092  93.1560 14.56628651523098
ORBCOMM FM106           
1 40088U 14040C   24136.50458393  .00003087  00000+0  57608-3 0  9998
2 40088  47.0602 306.0944 0017315  18.8886 341.2643 14.67049757525031
ORBCOMM FM111           
1 40089U 14040D   24136.55173643  .00004893  00000+0  63296-3 0  9992
2 40089  47.0026 206.2832 0031722  93.4817 266.9707 14.81835048531167
ORBCOMM FM104           
1 40090U 14040E   24136.24995990  .00001856  00000+0  46335-3 0  9998
2 40090  47.0035 123.4929 0016889 190.6567 169.3961 14.55141804522737
