<?xml version="1.0" encoding="UTF-8"?>
<ndm xmlns:xsi="http://www.w3.org/2001/XMLSchema-instance" xsi:noNamespaceSchemaLocation="https://sanaregistry.org/r/ndmxml_unqualified/ndmxml-2.0.0-master-2.0.xsd">
<omm id="CCSDS_OMM_VERS" version="2.0">
<header><CREATION_DATE/><ORIGINATOR/></header><body><segment><metadata><OBJECT_NAME>ORBCOMM FM37</OBJECT_NAME><OBJECT_ID>2008-031E</OBJECT_ID><CENTER_NAME>EARTH</CENTER_NAME><REF_FRAME>TEME</REF_FRAME><TIME_SYSTEM>UTC</TIME_SYSTEM><MEAN_ELEMENT_THEORY>SGP4</MEAN_ELEMENT_THEORY></metadata><data><meanElements><EPOCH>2024-05-15T05:25:38.032032</EPOCH><MEAN_MOTION>14.76458392</MEAN_MOTION><ECCENTRICITY>.0005509</ECCENTRICITY><INCLINATION>48.4403</INCLINATION><RA_OF_ASC_NODE>70.8492</RA_OF_ASC_NODE><ARG_OF_PERICENTER>112.3302</ARG_OF_PERICENTER><MEAN_ANOMALY>40.9341</MEAN_ANOMALY></meanElements><tleParameters><EPHEMERIS_TYPE>0</EPHEMERIS_TYPE><CLASSIFICATION_TYPE>U</CLASSIFICATION_TYPE><NORAD_CAT_ID>33064</NORAD_CAT_ID><ELEMENT_SET_NO>999</ELEMENT_SET_NO><REV_AT_EPOCH>85517</REV_AT_EPOCH><BSTAR>.61297E-3</BSTAR><MEAN_MOTION_DOT>.4108E-4</MEAN_MOTION_DOT><MEAN_MOTION_DDOT>0</MEAN_MOTION_DDOT></tleParameters></data></segment></body></omm>
<omm id="CCSDS_OMM_VERS" version="2.0">
<header><CREATION_DATE/><ORIGINATOR/></header><body><segment><metadata><OBJECT_NAME>ORBCOMM FM40</OBJECT_NAME><OBJECT_ID>2008-031F</OBJECT_ID><CENTER_NAME>EARTH</CENTER_NAME><REF_FRAME>TEME</REF_FRAME><TIME_SYSTEM>UTC</TIME_SYSTEM><MEAN_ELEMENT_THEORY>SGP4</MEAN_ELEMENT_THEORY></metadata><data><meanElements><EPOCH>2024-05-15T01:21:46.442592</EPOCH><MEAN_MOTION>14.77781611</MEAN_MOTION><ECCENTRICITY>.0006893</ECCENTRICITY><INCLINATION>48.4426</INCLINATION><RA_OF_ASC_NODE>60.9802</RA_OF_ASC_NODE><ARG_OF_PERICENTER>120.9834</ARG_OF_PERICENTER><MEAN_ANOMALY>252.6796</MEAN_ANOMALY></meanElements><tleParameters><EPHEMERIS_TYPE>0</EPHEMERIS_TYPE><CLASSIFICATION_TYPE>U</CLASSIFICATION_TYPE><NORAD_CAT_ID>33065</NORAD_CAT_ID><ELEMENT_SET_NO>999</ELEMENT_SET_NO><REV_AT_EPOCH>85519</REV_AT_EPOCH><BSTAR>.86704E-3</BSTAR><MEAN_MOTION_DOT>.6089E-4</MEAN_MOTION_DOT><MEAN_MOTION_DDOT>0</MEAN_MOTION_DDOT></tleParameters></data></segment></body></omm>
<omm id="CCSDS_OMM_VERS" version="2.0">
<header><CREATION_DATE/><ORIGINATOR/></header><body><segment><metadata><OBJECT_NAME>VESSELSAT 1</OBJECT_NAME><OBJECT_ID>2011-058C</OBJECT_ID><CENTER_NAME>EARTH</CENTER_NAME><REF_FRAME>TEME</REF_FRAME><TIME_SYSTEM>UTC</TIME_SYSTEM><MEAN_ELEMENT_THEORY>SGP4</MEAN_ELEMENT_THEORY></metadata><data><meanElements><EPOCH>2024-05-15T21:00:36.723456</EPOCH><MEAN_MOTION>14.11154061</MEAN_MOTION><ECCENTRICITY>.0013736</ECCENTRICITY><INCLINATION>19.9637</INCLINATION><RA_OF_ASC_NODE>337.6563</RA_OF_ASC_NODE><ARG_OF_PERICENTER>136.6037</ARG_OF_PERICENTER><MEAN_ANOMALY>223.5450</MEAN_ANOMALY></meanElements><tleParameters><EPHEMERIS_TYPE>0</EPHEMERIS_TYPE><CLASSIFICATION_TYPE>U</CLASSIFICATION_TYPE><NORAD_CAT_ID>37840</NORAD_CAT_ID><ELEMENT_SET_NO>999</ELEMENT_SET_NO><REV_AT_EPOCH>65034</REV_AT_EPOCH><BSTAR>.17562E-3</BSTAR><MEAN_MOTION_DOT>.586E-5</MEAN_MOTION_DOT><MEAN_MOTION_DDOT>0</MEAN_MOTION_DDOT></tleParameters></data></segment></body></omm>
<omm id="CCSDS_OMM_VERS" version="2.0">
<header><CREATION_DATE/><ORIGINATOR/></header><body><segment><metadata><OBJECT_NAME>ORBCOMM FM109</OBJECT_NAME><OBJECT_ID>2014-040A</OBJECT_ID><CENTER_NAME>EARTH</CENTER_NAME><REF_FRAME>TEME</REF_FRAME><TIME_SYSTEM>UTC</TIME_SYSTEM><MEAN_ELEMENT_THEORY>SGP4</MEAN_ELEMENT_THEORY></metadata><data><meanElements><EPOCH>2024-05-15T05:45:33.706944</EPOCH><MEAN_MOTION>14.56618173</MEAN_MOTION><ECCENTRICITY>.0002651</ECCENTRICITY><INCLINATION>47.0023</INCLINATION><RA_OF_ASC_NODE>93.6093</RA_OF_ASC_NODE><ARG_OF_PERICENTER>289.6661</ARG_OF_PERICENTER><MEAN_ANOMALY>70.3938</MEAN_ANOMALY></meanElements><tleParameters><EPHEMERIS_TYPE>0</EPHEMERIS_TYPE><CLASSIFICATION_TYPE>U</CLASSIFICATION_TYPE><NORAD_CAT_ID>40086</NORAD_CAT_ID><ELEMENT_SET_NO>999</ELEMENT_SET_NO><REV_AT_EPOCH>52301</REV_AT_EPOCH><BSTAR>.55288E-3</BSTAR><MEAN_MOTION_DOT>.2322E-4</MEAN_MOTION_DOT><MEAN_MOTION_DDOT>0</MEAN_MOTION_DDOT></tleParameters></data></segment></body></omm>
<omm id="CCSDS_OMM_VERS" version="2.0">
<header><CREATION_DATE/><ORIGINATOR/></header><body><segment><metadata><OBJECT_NAME>ORBCOMM FM107</OBJECT_NAME><OBJECT_ID>2014-040B</OBJECT_ID><CENTER_NAME>EARTH</CENTER_NAME><REF_FRAME>TEME</REF_FRAME><TIME_SYSTEM>UTC</TIME_SYSTEM><MEAN_ELEMENT_THEORY>SGP4</MEAN_ELEMENT_THEORY></metadata><data><meanElements><EPOCH>2024-05-15T06:34:50.078208</EPOCH><MEAN_MOTION>14.56628651</MEAN_MOTION><ECCENTRICITY>.0002036</ECCENTRICITY><INCLINATION>47.0042</INCLINATION><RA_OF_ASC_NODE>94.4146</RA_OF_ASC_NODE><ARG_OF_PERICENTER>266.9092</ARG_OF_PERICENTER><MEAN_ANOMALY>93.1560</MEAN_ANOMALY></meanElements><tleParameters><EPHEMERIS_TYPE>0</EPHEMERIS_TYPE><CLASSIFICATION_TYPE>U</CLASSIFICATION_TYPE><NORAD_CAT_ID>40087</NORAD_CAT_ID><ELEMENT_SET_NO>999</ELEMENT_SET_NO><REV_AT_EPOCH>52309</REV_AT_EPOCH><BSTAR>.56968E-3</BSTAR><MEAN_MOTION_DOT>.2398E-4</MEAN_MOTION_DOT><MEAN_MOTION_DDOT>0</MEAN_MOTION_DDOT></tleParameters></data></segment></body></omm>
<omm id="CCSDS_OMM_VERS" version="2.0">
<header><CREATION_DATE/><ORIGINATOR/></header><body><segment><metadata><OBJECT_NAME>ORBCOMM FM106</OBJECT_NAME><OBJECT_ID>2014-040C</OBJECT_ID><CENTER_NAME>EARTH</CENTER_NAME><REF_FRAME>TEME</REF_FRAME><TIME_SYSTEM>UTC</TIME_SYSTEM><MEAN_ELEMENT_THEORY>SGP4</MEAN_ELEMENT_THEORY></metadata><data><meanElements><EPOCH>2024-05-15T12:06:36.051552</EPOCH><MEAN_MOTION>14.67049757</MEAN_MOTION><ECCENTRICITY>.0017315</ECCENTRICITY><INCLINATION>47.0602</INCLINATION><RA_OF_ASC_NODE>306.0944</RA_OF_ASC_NODE><ARG_OF_PERICENTER>18.8886</ARG_OF_PERICENTER><MEAN_ANOMALY>341.2643</MEAN_ANOMALY></meanElements><tleParameters><EPHEMERIS_TYPE>0</EPHEMERIS_TYPE><CLASSIFICATION_TYPE>U</CLASSIFICATION_TYPE><NORAD_CAT_ID>40088</NORAD_CAT_ID><ELEMENT_SET_NO>999</ELEMENT_SET_NO><REV_AT_EPOCH>52503</REV_AT_EPOCH><BSTAR>.57608E-3</BSTAR><MEAN_MOTION_DOT>.3087E-4</MEAN_MOTION_DOT><MEAN_MOTION_DDOT>0</MEAN_MOTION_DDOT></tleParameters></data></segment></body></omm>
<omm id="CCSDS_OMM_VERS" version="2.0">
<header><CREATION_DATE/><ORIGINATOR/></header><body><segment><metadata><OBJECT_NAME>ORBCOMM FM111</OBJECT_NAME><OBJECT_ID>2014-040D</OBJECT_ID><CENTER_NAME>EARTH</CENTER_NAME><REF_FRAME>TEME</REF_FRAME><TIME_SYSTEM>UTC</TIME_SYSTEM><MEAN_ELEMENT_THEORY>SGP4</MEAN_ELEMENT_THEORY></metadata><data><meanElements><EPOCH>2024-05-15T13:14:30.027552</EPOCH><MEAN_MOTION>14.81835048</MEAN_MOTION><ECCENTRICITY>.0031722</ECCENTRICITY><INCLINATION>47.0026</INCLINATION><RA_OF_ASC_NODE>206.2832</RA_OF_ASC_NODE><ARG_OF_PERICENTER>93.4817</ARG_OF_PERICENTER><MEAN_ANOMALY>266.9707</MEAN_ANOMALY></meanElements><tleParameters><EPHEMERIS_TYPE>0</EPHEMERIS_TYPE><CLASSIFICATION_TYPE>U</CLASSIFICATION_TYPE><NORAD_CAT_ID>40089</NORAD_CAT_ID><ELEMENT_SET_NO>999</ELEMENT_SET_NO><REV_AT_EPOCH>53116</REV_AT_EPOCH><BSTAR>.63296E-3</BSTAR><MEAN_MOTION_DOT>.4893E-4</MEAN_MOTION_DOT><MEAN_MOTION_DDOT>0</MEAN_MOTION_DDOT></tleParameters></data></segment></body></omm>
<omm id="CCSDS_OMM_VERS" version="2.0">
<header><CREATION_DATE/><ORIGINATOR/></header><body><segment><metadata><OBJECT_NAME>ORBCOMM FM104</OBJECT_NAME><OBJECT_ID>2014-040E</OBJECT_ID><CENTER_NAME>EARTH</CENTER_NAME><REF_FRAME>TEME</REF_FRAME><TIME_SYSTEM>UTC</TIME_SYSTEM><MEAN_ELEMENT_THEORY>SGP4</MEAN_ELEMENT_THEORY></metadata><data><meanElements><EPOCH>2024-05-15T05:59:56.535360</EPOCH><MEAN_MOTION>14.55141804</MEAN_MOTION><ECCENTRICITY>.0016889</ECCENTRICITY><INCLINATION>47.0035</INCLINATION><RA_OF_ASC_NODE>123.4929</RA_OF_ASC_NODE><ARG_OF_PERICENTER>190.6567</ARG_OF_PERICENTER><MEAN_ANOMALY>169.3961</MEAN_ANOMALY></meanElements><tleParameters><EPHEMERIS_TYPE>0</EPHEMERIS_TYPE><CLASSIFICATION_TYPE>U</CLASSIFICATION_TYPE><NORAD_CAT_ID>40090</NORAD_CAT_ID><ELEMENT_SET_NO>999</ELEMENT_SET_NO><REV_AT_EPOCH>52273</REV_AT_EPOCH><BSTAR>.46335E-3</BSTAR><MEAN_MOTION_DOT>.1856E-4</MEAN_MOTION_DOT><MEAN_MOTION_DDOT>0</MEAN_MOTION_DDOT></tleParameters></data></segment></body></omm>

</ndm>
